{
    "type": "FeatureCollection",
    "features": [
        {
            "type": "Feature",
            "geometry": {
                "type": "Polygon",
                "coordinates": [
                    [
                        [
                            -78.63856,
                            -1.295683
                        ],
                        [
                            -78.632281,
                            -1.301205
                        ],
                        [
                            -78.615625,
                            -1.298866
                        ],
                        [
                            -78.612051,
                            -1.308827
                        ],
                        [
                            -78.604116,
                            -1.311432
                        ],
                        [
                            -78.598326,
                            -1.319546
                        ],
                        [
                            -78.594466,
                            -1.318457
                        ],
                        [
                            -78.592437,
                            -1.31163
                        ],
                        [
                            -78.5951,
                            -1.302154
                        ],
                        [
                            -78.596802,
                            -1.299239
                        ],
                        [
                            -78.601356,
                            -1.291633
                        ],
                        [
                            -78.596846,
                            -1.2875
                        ],
                        [
                            -78.600981,
                            -1.284055
                        ],
                        [
                            -78.602656,
                            -1.277215
                        ],
                        [
                            -78.593002,
                            -1.269914
                        ],
                        [
                            -78.59352,
                            -1.264655
                        ],
                        [
                            -78.593163,
                            -1.262317
                        ],
                        [
                            -78.589151,
                            -1.260077
                        ],
                        [
                            -78.595509,
                            -1.259053
                        ],
                        [
                            -78.598149,
                            -1.254636
                        ],
                        [
                            -78.5933,
                            -1.249626
                        ],
                        [
                            -78.593731,
                            -1.244832
                        ],
                        [
                            -78.598527,
                            -1.242408
                        ],
                        [
                            -78.603969,
                            -1.240038
                        ],
                        [
                            -78.610923,
                            -1.245018
                        ],
                        [
                            -78.615034,
                            -1.246614
                        ],
                        [
                            -78.615563,
                            -1.246777
                        ],
                        [
                            -78.615563,
                            -1.248886
                        ],
                        [
                            -78.616032,
                            -1.247641
                        ],
                        [
                            -78.61643,
                            -1.248515
                        ],
                        [
                            -78.616561,
                            -1.248384
                        ],
                        [
                            -78.616843,
                            -1.247736
                        ],
                        [
                            -78.618088,
                            -1.248944
                        ],
                        [
                            -78.619228,
                            -1.250036
                        ],
                        [
                            -78.621366,
                            -1.2521
                        ],
                        [
                            -78.620792,
                            -1.252737
                        ],
                        [
                            -78.620344,
                            -1.25355
                        ],
                        [
                            -78.619778,
                            -1.254191
                        ],
                        [
                            -78.618572,
                            -1.255729
                        ],
                        [
                            -78.618363,
                            -1.25616
                        ],
                        [
                            -78.617817,
                            -1.256996
                        ],
                        [
                            -78.617458,
                            -1.257838
                        ],
                        [
                            -78.618052,
                            -1.258344
                        ],
                        [
                            -78.618522,
                            -1.257517
                        ],
                        [
                            -78.619125,
                            -1.256534
                        ],
                        [
                            -78.619662,
                            -1.255796
                        ],
                        [
                            -78.620221,
                            -1.255126
                        ],
                        [
                            -78.621205,
                            -1.253874
                        ],
                        [
                            -78.621382,
                            -1.254064
                        ],
                        [
                            -78.622226,
                            -1.252839
                        ],
                        [
                            -78.622022,
                            -1.252628
                        ],
                        [
                            -78.621585,
                            -1.25231
                        ],
                        [
                            -78.616822,
                            -1.247777
                        ],
                        [
                            -78.616889,
                            -1.247631
                        ],
                        [
                            -78.617162,
                            -1.246953
                        ],
                        [
                            -78.617863,
                            -1.245114
                        ],
                        [
                            -78.617322,
                            -1.244856
                        ],
                        [
                            -78.616912,
                            -1.24462
                        ],
                        [
                            -78.61635,
                            -1.244305
                        ],
                        [
                            -78.616034,
                            -1.244176
                        ],
                        [
                            -78.614494,
                            -1.243369
                        ],
                        [
                            -78.614587,
                            -1.244654
                        ],
                        [
                            -78.615029,
                            -1.246052
                        ],
                        [
                            -78.615533,
                            -1.246761
                        ],
                        [
                            -78.612962,
                            -1.245826
                        ],
                        [
                            -78.610936,
                            -1.245034
                        ],
                        [
                            -78.607436,
                            -1.242557
                        ],
                        [
                            -78.603958,
                            -1.240028
                        ],
                        [
                            -78.605639,
                            -1.234543
                        ],
                        [
                            -78.609465,
                            -1.228294
                        ],
                        [
                            -78.602837,
                            -1.226678
                        ],
                        [
                            -78.598042,
                            -1.219891
                        ],
                        [
                            -78.602999,
                            -1.216282
                        ],
                        [
                            -78.60637,
                            -1.215454
                        ],
                        [
                            -78.609022,
                            -1.215646
                        ],
                        [
                            -78.611833,
                            -1.217659
                        ],
                        [
                            -78.615284,
                            -1.218652
                        ],
                        [
                            -78.616577,
                            -1.225763
                        ],
                        [
                            -78.621803,
                            -1.226517
                        ],
                        [
                            -78.627676,
                            -1.228779
                        ],
                        [
                            -78.631502,
                            -1.233412
                        ],
                        [
                            -78.640949,
                            -1.233631
                        ],
                        [
                            -78.643689,
                            -1.237847
                        ],
                        [
                            -78.645262,
                            -1.241106
                        ],
                        [
                            -78.643895,
                            -1.244078
                        ],
                        [
                            -78.646015,
                            -1.24732
                        ],
                        [
                            -78.646015,
                            -1.24732
                        ],
                        [
                            -78.651299,
                            -1.250327
                        ],
                        [
                            -78.644911,
                            -1.256792
                        ],
                        [
                            -78.639768,
                            -1.261544
                        ],
                        [
                            -78.639067,
                            -1.268632
                        ],
                        [
                            -78.641361,
                            -1.271431
                        ],
                        [
                            -78.64427,
                            -1.274825
                        ],
                        [
                            -78.645671,
                            -1.283982
                        ],
                        [
                            -78.647288,
                            -1.291954
                        ],
                        [
                            -78.63856,
                            -1.295683
                        ]
                    ]
                ]
            },
            "properties": {}
        }
    ]
}